STARLINK-31092          
1 58628U 23203L   26068.37045179 -.00000528  00000+0 -96672-5 0  9998
2 58628  42.9979  68.7960 0000529 234.8552 125.2250 15.27572454123513
YAOGAN-43 01D           
1 60461U 24148D   26068.43560480  .00010676  00000+0  37766-3 0  9999
2 60461  35.0010  61.7102 0002556 326.2473  33.8080 15.28369377 87008
